[{"OBJECT_NAME":"EXO-0","OBJECT_ID":"2023-174DK","EPOCH":"2026-03-09T17:03:04.419648","MEAN_MOTION":15.32821991,"ECCENTRICITY":0.00098779,"INCLINATION":97.3864,"RA_OF_ASC_NODE":148.9039,"ARG_OF_PERICENTER":157.1125,"MEAN_ANOMALY":203.0559,"EPHEMERIS_TYPE":0,"CLASSIFICATION_TYPE":"U","NORAD_CAT_ID":59175,"ELEMENT_SET_NO":999,"REV_AT_EPOCH":12979,"BSTAR":0.00036716083,"MEAN_MOTION_DOT":0.00011582,"MEAN_MOTION_DDOT":0},{"OBJECT_NAME":"STARLINK-32748","OBJECT_ID":"2025-004P","EPOCH":"2026-03-09T10:44:28.955040","MEAN_MOTION":15.27597298,"ECCENTRICITY":0.00028738,"INCLINATION":43.0027,"RA_OF_ASC_NODE":221.0601,"ARG_OF_PERICENTER":281.0047,"MEAN_ANOMALY":79.0481,"EPHEMERIS_TYPE":0,"CLASSIFICATION_TYPE":"U","NORAD_CAT_ID":62524,"ELEMENT_SET_NO":999,"REV_AT_EPOCH":6642,"BSTAR":0.00089374469,"MEAN_MOTION_DOT":0.00024428,"MEAN_MOTION_DDOT":0}]
